ISS Orbital Elements (Epoch: 2025-10-29 11:44:55.862 UTC)
  Semi-major axis: 6796.092 km
  Eccentricity: 0.000481
  Inclination: 51.6347 deg
  RAAN: 1.5519 deg
  Arg of Perigee: 353.3325 deg
  Mean Anomaly: 6.7599 deg
